[
    {
        "name": "NOAA 15",
        "first tle line": "1 25338U 98030A   25196.15072901  .00000165  00000+0  85575-4 0  9994",
        "second tle line": "2 25338  98.5338 220.4235 0009052 253.0826 106.9362 14.26996601413479"
    },
    {
        "name": "NOAA 18",
        "first tle line": "1 28654U 05018A   25196.22448078  .00000065  00000+0  57560-4 0  9994",
        "second tle line": "2 28654  98.8419 275.2996 0014712  32.6247 327.5831 14.13618890 38781"
    },
    {
        "name": "NOAA 19",
        "first tle line": "1 33591U 09005A   25196.16590089  .00000140  00000+0  98886-4 0  9993",
        "second tle line": "2 33591  98.9957 261.0676 0012701 262.3869  97.5861 14.13389211847137"
    },
    {
        "name": "NOAA 20 (JPSS-1)",
        "first tle line": "1 43013U 17073A   25196.15251448  .00000054  00000+0  46593-4 0  9991",
        "second tle line": "2 43013  98.7410 134.2722 0001443 125.3782 234.7529 14.19545488396653"
    },
    {
        "name": "NOAA 21 (JPSS-2)",
        "first tle line": "1 54234U 22150A   25196.18848776  .00000033  00000+0  36501-4 0  9994",
        "second tle line": "2 54234  98.7273 134.5483 0002736  77.2637 282.8845 14.19544028138731"
    },
    {
        "name": "METEOR-M 2",
        "first tle line": "1 40069U 14037A   25196.24173855  .00000071  00000+0  51914-4 0  9993",
        "second tle line": "2 40069  98.4696 179.7418 0004696 303.4925  56.5804 14.21308502571457"
    },
    {
        "name": "METEOR-M2 2",
        "first tle line": "1 44387U 19038A   25196.18667497  .00000058  00000+0  45006-4 0  9999",
        "second tle line": "2 44387  98.8763 174.2217 0000120 301.5227  58.5940 14.24216155313320"
    }
]